OBJECT_NAME,OBJECT_ID,EPOCH,MEAN_MOTION,ECCENTRICITY,INCLINATION,RA_OF_ASC_NODE,ARG_OF_PERICENTER,MEAN_ANOMALY,EPHEMERIS_TYPE,CLASSIFICATION_TYPE,NORAD_CAT_ID,ELEMENT_SET_NO,REV_AT_EPOCH,BSTAR,MEAN_MOTION_DOT,MEAN_MOTION_DDOT
STARLINK-34142,2025-099F,2026-05-28T06:18:40.572576,15.27610979,.00016032,43.0017,87.0400,254.5453,105.5222,0,U,63957,999,5950,.14622661E-2,.40234E-3,0
STARLINK-34144,2025-099G,2026-05-28T06:13:07.898880,15.27597093,.00008726,42.9966,87.0095,272.4224,87.6527,0,U,63958,999,5950,.93581581E-3,.25592E-3,0
STARLINK-34099,2025-099H,2026-05-28T04:55:37.481952,15.27601245,.00015876,43.0035,87.4693,263.6985,96.3686,0,U,63959,999,5949,.85052181E-3,.23231E-3,0
STARLINK-34107,2025-099J,2026-05-28T04:33:25.631136,15.27614372,.00011254,42.9983,87.3453,247.2473,112.8260,0,U,63960,999,5949,.71392584E-3,.19456E-3,0
STARLINK-34121,2025-099K,2026-05-28T04:24:10.202688,15.27600814,.00013938,42.9986,87.2958,251.5145,108.5556,0,U,63961,999,5949,.11072111E-2,.30351E-3,0
STARLINK-34103,2025-099L,2026-05-28T04:18:37.237824,15.27593797,.00013045,42.9998,87.2688,279.7653,80.3051,0,U,63962,999,5949,.77647527E-3,.21175E-3,0
STARLINK-33801,2025-099M,2026-05-28T04:07:30.864000,15.27606389,.00019059,43.0012,87.2062,256.5888,103.4751,0,U,63963,999,5949,.11015271E-2,.30199E-3,0
STARLINK-34135,2025-099N,2026-05-28T05:47:13.459200,15.27601738,.00015898,43.0015,86.8697,266.3431,93.7239,0,U,63964,999,5950,.79836842E-3,.21787E-3,0
STARLINK-34147,2025-099P,2026-05-28T05:36:07.189920,15.27604621,.0001888,43.0027,86.8091,254.8818,105.1825,0,U,63965,999,5950,.86189652E-3,.23549E-3,0
STARLINK-33960,2025-099Q,2026-05-28T05:30:34.113600,15.27604970,.00017969,43.0030,86.7796,264.1269,95.9378,0,U,63966,999,5950,.83907837E-3,.22917E-3,0
STARLINK-34153,2025-099R,2026-05-28T05:21:18.824256,15.27614834,.00023455,43.0039,86.7285,253.3316,106.7279,0,U,63967,999,5950,.12250553E-2,.3364E-3,0
STARLINK-33963,2025-099S,2026-05-28T05:26:52.029312,15.27605555,.00020745,43.0029,86.7587,253.7571,106.3053,0,U,63968,999,5950,.1239692E-2,.34036E-3,0
STARLINK-34112,2025-099T,2026-05-28T05:15:45.926784,15.27600584,.0001625,43.0034,86.7001,263.6966,96.3701,0,U,63969,999,5950,.75184807E-3,.20498E-3,0
STARLINK-34084,2025-099U,2026-05-28T03:36:03.498336,15.27602556,.00015227,43.0022,87.0381,263.8316,96.2363,0,U,63970,999,5949,.73266654E-3,.19968E-3,0
STARLINK-34138,2025-099V,2026-05-28T04:19:18.948288,15.27601884,.0000976,42.9991,83.8006,276.5223,83.5518,0,U,63971,999,5953,.12772446E-2,.35076E-3,0
STARLINK-34115,2025-099W,2026-05-28T04:04:30.507456,15.27608326,.00022632,43.0005,83.7268,255.9968,104.0632,0,U,63972,999,5953,.12628122E-2,.34682E-3,0
STARLINK-34028,2025-099X,2026-05-28T04:47:03.672384,15.27613895,.00024982,43.0034,83.9480,246.7090,113.3499,0,U,63973,999,5953,.13064742E-2,.35903E-3,0
STARLINK-33942,2025-099Y,2026-05-28T04:41:30.852672,15.27606150,.00017285,43.0047,83.9195,265.9538,94.1116,0,U,63974,999,5953,.97232181E-3,.26612E-3,0
STARLINK-34139,2025-099Z,2026-05-28T04:35:58.055424,15.27608248,.00013303,42.9992,83.8900,268.0835,91.9864,0,U,63975,999,5944,.14117427E-2,.38824E-3,0
STARLINK-34090,2025-099AA,2026-05-28T04:30:24.645600,15.27594959,.00019525,43.0016,83.8606,256.4910,103.5725,0,U,63976,999,5944,.80409323E-3,.21941E-3,0
STARLINK-34105,2025-099AB,2026-05-28T06:00:51.975648,15.27612211,.00015847,43.0024,83.4702,260.8912,99.1761,0,U,63977,999,5945,.12185207E-2,.33454E-3,0
STARLINK-33642,2025-099AC,2026-05-28T05:49:46.295616,15.27628334,.00010074,42.9996,83.4091,258.5202,101.5537,0,U,63978,999,5945,.86727727E-3,.23715E-3,0
STARLINK-34045,2025-099AD,2026-05-28T05:44:13.530336,15.27580788,.00015761,43.0034,83.3796,265.3198,94.7474,0,U,63979,999,5945,.8467477E-3,.23112E-3,0
SCS-01 A,2025-100A,2026-05-28T06:01:12.085248,15.19960579,.00302834,97.3681,221.4939,76.2093,284.2509,0,U,63982,999,5761,.52090846E-3,.11284E-3,0
SCS-01 B,2025-100B,2026-05-28T06:47:32.913312,15.37545911,.00084917,97.3644,225.2727,15.6589,344.4917,0,U,63983,999,5785,.90611537E-3,.33438E-3,0
SCS-01 C,2025-100C,2026-05-28T06:02:09.771936,15.19959500,.00320647,97.3675,221.4731,73.2989,287.1761,0,U,63984,999,5759,.52595516E-3,.11411E-3,0
SCS-01 D,2025-100D,2026-05-28T06:56:43.971648,15.30890204,.00082668,97.3675,224.2936,4.1555,355.9753,0,U,63985,999,5778,.1010338E-2,.30197E-3,0
SCS-01 E,2025-100E,2026-05-28T06:03:44.675424,15.20755505,.00128906,97.3638,221.4584,38.3712,321.8439,0,U,63986,999,2742,.77759639E-3,.17115E-3,0
SCS-01 F,2025-100F,2026-05-28T05:59:30.871104,15.19965713,.00100235,97.3645,221.4878,36.3965,323.7950,0,U,63987,999,5760,.77833878E-3,.16726E-3,0
SCS-01 G,2025-100G,2026-05-28T06:15:03.453696,15.26457545,.00131102,97.3705,223.5251,23.4237,336.7597,0,U,63988,999,5772,.23596346E-3,.6093E-4,0
