STARLINK-34142          
1 63957U 25099F   26148.26296959  .00040234  00000+0  14623-2 0  9994
2 63957  43.0017  87.0400 0001603 254.5453 105.5222 15.27610979 59507
STARLINK-34144          
1 63958U 25099G   26148.25911920  .00025592  00000+0  93582-3 0  9998
2 63958  42.9966  87.0095 0000872 272.4224  87.6527 15.27597093 59500
STARLINK-34099          
1 63959U 25099H   26148.20529493  .00023231  00000+0  85052-3 0  9995
2 63959  43.0035  87.4693 0001587 263.6985  96.3686 15.27601245 59494
STARLINK-34107          
1 63960U 25099J   26148.18987999  .00019456  00000+0  71393-3 0  9990
2 63960  42.9983  87.3453 0001125 247.2473 112.8260 15.27614372 59494
STARLINK-34121          
1 63961U 25099K   26148.18345142  .00030351  00000+0  11072-2 0  9993
2 63961  42.9986  87.2958 0001393 251.5145 108.5556 15.27600814 59494
STARLINK-34103          
1 63962U 25099L   26148.17959766  .00021175  00000+0  77648-3 0  9992
2 63962  42.9998  87.2688 0001304 279.7653  80.3051 15.27593797 59494
STARLINK-33801          
1 63963U 25099M   26148.17188500  .00030199  00000+0  11015-2 0  9994
2 63963  43.0012  87.2062 0001905 256.5888 103.4751 15.27606389 59496
STARLINK-34135          
1 63964U 25099N   26148.24112800  .00021787  00000+0  79837-3 0  9993
2 63964  43.0015  86.8697 0001589 266.3431  93.7239 15.27601738 59507
STARLINK-34147          
1 63965U 25099P   26148.23341655  .00023549  00000+0  86190-3 0  9993
2 63965  43.0027  86.8091 0001888 254.8818 105.1825 15.27604621 59505
STARLINK-33960          
1 63966U 25099Q   26148.22956150  .00022917  00000+0  83908-3 0  9997
2 63966  43.0030  86.7796 0001796 264.1269  95.9378 15.27604970 59509
STARLINK-34153          
1 63967U 25099R   26148.22313454  .00033640  00000+0  12251-2 0  9999
2 63967  43.0039  86.7285 0002345 253.3316 106.7279 15.27614834 59507
STARLINK-33963          
1 63968U 25099S   26148.22699108  .00034036  00000+0  12397-2 0  9994
2 63968  43.0029  86.7587 0002074 253.7571 106.3053 15.27605555 59504
STARLINK-34112          
1 63969U 25099T   26148.21928156  .00020498  00000+0  75185-3 0  9994
2 63969  43.0034  86.7001 0001625 263.6966  96.3701 15.27600584 59506
STARLINK-34084          
1 63970U 25099U   26148.15004049  .00019968  00000+0  73267-3 0  9994
2 63970  43.0022  87.0381 0001522 263.8316  96.2363 15.27602556 59499
STARLINK-34138          
1 63971U 25099V   26148.18008042  .00035076  00000+0  12772-2 0  9996
2 63971  42.9991  83.8006 0000976 276.5223  83.5518 15.27601884 59530
STARLINK-34115          
1 63972U 25099W   26148.16979754  .00034682  00000+0  12628-2 0  9994
2 63972  43.0005  83.7268 0002263 255.9968 104.0632 15.27608326 59530
STARLINK-34028          
1 63973U 25099X   26148.19934806  .00035903  00000+0  13065-2 0  9990
2 63973  43.0034  83.9480 0002498 246.7090 113.3499 15.27613895 59536
STARLINK-33942          
1 63974U 25099Y   26148.19549598  .00026612  00000+0  97232-3 0  9997
2 63974  43.0047  83.9195 0001728 265.9538  94.1116 15.27606150 59537
STARLINK-34139          
1 63975U 25099Z   26148.19164416  .00038824  00000+0  14117-2 0  9998
2 63975  42.9992  83.8900 0001330 268.0835  91.9864 15.27608248 59446
STARLINK-34090          
1 63976U 25099AA  26148.18778525  .00021941  00000+0  80409-3 0  9990
2 63976  43.0016  83.8606 0001952 256.4910 103.5725 15.27594959 59443
STARLINK-34105          
1 63977U 25099AB  26148.25060157  .00033454  00000+0  12185-2 0  9991
2 63977  43.0024  83.4702 0001584 260.8912  99.1761 15.27612211 59451
STARLINK-33642          
1 63978U 25099AC  26148.24289694  .00023715  00000+0  86728-3 0  9994
2 63978  42.9996  83.4091 0001007 258.5202 101.5537 15.27628334 59457
STARLINK-34045          
1 63979U 25099AD  26148.23904549  .00023112  00000+0  84675-3 0  9997
2 63979  43.0034  83.3796 0001576 265.3198  94.7474 15.27580788 59458
SCS-01 A                
1 63982U 25100A   26148.25083432  .00011284  00000+0  52091-3 0  9999
2 63982  97.3681 221.4939 0030283  76.2093 284.2509 15.19960579 57618
SCS-01 B                
1 63983U 25100B   26148.28301983  .00033438  00000+0  90612-3 0  9993
2 63983  97.3644 225.2727 0008491  15.6589 344.4917 15.37545911 57855
SCS-01 C                
1 63984U 25100C   26148.25150199  .00011411  00000+0  52596-3 0  9998
2 63984  97.3675 221.4731 0032064  73.2989 287.1761 15.19959500 57594
SCS-01 D                
1 63985U 25100D   26148.28939782  .00030197  00000+0  10103-2 0  9994
2 63985  97.3675 224.2936 0008266   4.1555 355.9753 15.30890204 57786
SCS-01 E                
1 63986U 25100E   26148.25260041  .00017115  00000+0  77760-3 0  9995
2 63986  97.3638 221.4584 0012890  38.3712 321.8439 15.20755505 27420
SCS-01 F                
1 63987U 25100F   26148.24966286  .00016726  00000+0  77834-3 0  9998
2 63987  97.3645 221.4878 0010023  36.3965 323.7950 15.19965713 57603
SCS-01 G                
1 63988U 25100G   26148.26045664  .00006093  00000+0  23596-3 0  9991
2 63988  97.3705 223.5251 0013110  23.4237 336.7597 15.26457545 57729
